NORAD_CAT_ID,OBJECT_NAME,OBJECT_TYPE,EPOCH,MEAN_MOTION,ECCENTRICITY,INCLINATION,RA_OF_ASC_NODE,ARG_OF_PERICENTER,MEAN_ANOMALY,BSTAR,MEAN_MOTION_DOT,MEAN_MOTION_DDOT,TLE_LINE0,TLE_LINE1,TLE_LINE2,SEMIMAJOR_AXIS,PERIOD,APOGEE,PERIGEE,DECAYED
51815.0,STARLINK-3604,PAYLOAD,2022-12-09 04:57:52,15.08843637,0.0002006,53.2168,255.4642,47.3381,312.778,0.00017514,2.501e-05,0.0,0 STARLINK-3604,1 51815U 22017AZ  22343.20686034  .00002501  00000-0  17514-3 0  9994,2 51815  53.2168 255.4642 0002006  47.3381 312.7780 15.08843637 44965,6917.869000000002,95.437,541.122,538.347,0.0
51815.0,STARLINK-3604,PAYLOAD,2022-12-10 03:13:16,15.088478599999998,0.0002148,53.2163,251.2994,48.8339,311.2838,-5.3738e-05,-1.144e-05,0.0,0 STARLINK-3604,1 51815U 22017AZ  22344.13422317 -.00001144  00000-0 -53738-4 0  9992,2 51815  53.2163 251.2994 0002148  48.8339 311.2838 15.08847860 45220,6917.856,95.437,541.207,538.235,0.0
51815.0,STARLINK-3604,PAYLOAD,2022-12-11 03:04:03,15.08840214,0.0001653,53.2166,246.8382,47.8799,312.2334,-3.8235e-06,-3.49e-06,0.0,0 STARLINK-3604,1 51815U 22017AZ  22345.12782353 -.00000349  00000-0 -38235-5 0  9993,2 51815  53.2166 246.8382 0001653  47.8799 312.2334 15.08840214 45377,6917.88,95.438,540.888,538.601,0.0
51815.0,STARLINK-3604,PAYLOAD,2022-12-11 23:44:04,15.08839361,0.0001823,53.2162,242.9743,38.6316,321.4806,2.3532e-05,8.6e-07,0.0,0 STARLINK-3604,1 51815U 22017AZ  22345.98894472  .00000086  00000-0  23532-4 0  9992,2 51815  53.2162 242.9743 0001823  38.6316 321.4806 15.08839361 45381,6917.882,95.438,541.008,538.486,0.0
51815.0,STARLINK-3604,PAYLOAD,2022-12-12 17:13:19,15.08834691,0.000172,53.2164,239.7046,46.0502,314.0632,6.562e-05,7.56e-06,0.0,0 STARLINK-3604,1 51815U 22017AZ  22346.71758648  .00000756  00000-0  65620-4 0  9996,2 51815  53.2164 239.7046 0001720  46.0502 314.0632 15.08834691 45611,6917.897,95.438,540.951,538.572,0.0
51815.0,STARLINK-3604,PAYLOAD,2022-12-12 23:34:54,15.08802666,0.0001537,53.2167,238.5146,46.4963,313.6157,-0.00019959,-3.46e-05,0.0,0 STARLINK-3604,1 51815U 22017AZ  22346.98257583 -.00003460  00000-0 -19959-3 0  9997,2 51815  53.2167 238.5146 0001537  46.4963 313.6157 15.08802666 45651,6917.995,95.44,540.923,538.7959999999998,0.0
51815.0,STARLINK-3604,PAYLOAD,2022-12-13 02:45:41,15.08801234,0.0001431999999999,53.2161,237.9209,46.4114,313.6997,-0.00020996,-3.624e-05,0.0,0 STARLINK-3604,1 51815U 22017AZ  22347.11506001 -.00003624  00000-0 -20996-3 0  9990,2 51815  53.2161 237.9209 0001432  46.4114 313.6997 15.08801234 45551,6917.999,95.44,540.855,538.873,0.0
51815.0,STARLINK-3604,PAYLOAD,2022-12-13 17:04:09,15.08813366,0.0001832,53.2154,235.2425,49.0933,311.0217,-5.3919e-05,-1.145e-05,0.0,0 STARLINK-3604,1 51815U 22017AZ  22347.71122017 -.00001145  00000-0 -53919-4 0  9995,2 51815  53.2154 235.2425 0001832  49.0933 311.0217 15.08813366 45765,6917.962,95.439,541.094,538.559,0.0
51815.0,STARLINK-3604,PAYLOAD,2022-12-14 01:01:03,15.08834435,0.0001833,53.2165,233.7572,55.5539,304.5626,0.00012122,1.641e-05,0.0,0 STARLINK-3604,1 51815U 22017AZ  22348.04240580  .00001641  00000-0  12122-3 0  9997,2 51815  53.2165 233.7572 0001833  55.5539 304.5626 15.08834435 45815,6917.897,95.438,541.03,538.494,0.0
51815.0,STARLINK-3604,PAYLOAD,2022-12-14 08:57:59,15.08842183,0.0001636,53.2162,232.2701,60.7143,299.4012,0.00017952,2.57e-05,0.0,0 STARLINK-3604,1 51815U 22017AZ  22348.37360009  .00002570  00000-0  17952-3 0  9990,2 51815  53.2162 232.2701 0001636  60.7143 299.4012 15.08842183 45865,6917.874,95.437,540.87,538.607,0.0
51815.0,STARLINK-3604,PAYLOAD,2022-12-15 02:27:14,15.08828859,0.0001567,53.2161,228.9986,57.19300000000001,302.9213,0.00038845,5.898e-05,0.0,0 STARLINK-3604,1 51815U 22017AZ  22349.10224545  .00005898  00000-0  38845-3 0  9996,2 51815  53.2161 228.9986 0001567  57.1930 302.9213 15.08828859 45977,6917.9140000000025,95.438,540.863,538.695,0.0
51815.0,STARLINK-3604,PAYLOAD,2022-12-15 08:48:46,15.08833892,0.0001579,53.2161,227.8091,58.5988,301.5158,0.0004856,7.447e-05,0.0,0 STARLINK-3604,1 51815U 22017AZ  22349.36720454  .00007447  00000-0  48560-3 0  9991,2 51815  53.2161 227.8091 0001579  58.5988 301.5158 15.08833892 45890,6917.899,95.438,540.856,538.672,0.0
51815.0,STARLINK-3604,PAYLOAD,2022-12-15 19:56:28,15.08852926,0.0001749,53.2163,225.7281,64.9791,295.1383,0.00012893,1.765e-05,0.0,0 STARLINK-3604,1 51815U 22017AZ  22349.83088156  .00001765  00000-0  12893-3 0  9996,2 51815  53.2163 225.7281 0001749  64.9791 295.1383 15.08852926 46081,6917.840999999999,95.437,540.9159999999998,538.496,0.0
51815.0,STARLINK-3604,PAYLOAD,2022-12-16 02:18:01,15.08841636,0.0001631,53.2157,224.5382,63.9135,296.2025,1.9399e-05,2.1e-07,0.0,0 STARLINK-3604,1 51815U 22017AZ  22350.09584986  .00000021  00000-0  19399-4 0  9991,2 51815  53.2157 224.5382 0001631  63.9135 296.2025 15.08841636 46120,6917.875,95.437,540.869,538.612,0.0
51815.0,STARLINK-3604,PAYLOAD,2022-12-16 08:39:33,15.08843747,0.0001593,53.2154,223.3488,66.9228,293.1932,3.6974e-05,3.01e-06,0.0,0 STARLINK-3604,1 51815U 22017AZ  22350.36080738  .00000301  00000-0  36974-4 0  9996,2 51815  53.2154 223.3488 0001593  66.9228 293.1932 15.08843747 46043,6917.869000000002,95.437,540.836,538.632,0.0
51815.0,STARLINK-3604,PAYLOAD,2022-12-16 19:47:16,15.08836617,0.0001686,53.2158,221.2671,62.2674,297.8489,1.0001e-05,-1.29e-06,0.0,0 STARLINK-3604,1 51815U 22017AZ  22350.82449157 -.00000129  00000-0  10001-4 0  9993,2 51815  53.2158 221.2671 0001686  62.2674 297.8489 15.08836617 46119,6917.891,95.438,540.922,538.589,0.0
51815.0,STARLINK-3604,PAYLOAD,2022-12-17 08:30:20,15.08844661,0.0001698,53.2156,218.8875,59.0801,301.0358,-2.6976e-05,-7.17e-06,0.0,0 STARLINK-3604,1 51815U 22017AZ  22351.35440647 -.00000717  00000-0 -26976-4 0  9999,2 51815  53.2156 218.8875 0001698  59.0801 301.0358 15.08844661 46193,6917.866,95.437,540.906,538.556,0.0
51815.0,STARLINK-3604,PAYLOAD,2022-12-17 19:38:02,15.08849046,0.0001685,53.2155,216.8056,58.3439,301.7717,6.9266e-05,8.15e-06,0.0,0 STARLINK-3604,1 51815U 22017AZ  22351.81807975  .00000815  00000-0  69266-4 0  9997,2 51815  53.2155 216.8056 0001685  58.3439 301.7717 15.08849046 46262,6917.853,95.437,540.883,538.552,0.0
51815.0,STARLINK-3604,PAYLOAD,2022-12-18 08:21:08,15.08831231,0.0001675999999999,53.215,214.4266,58.5231,301.5925,2.3696e-05,8.9e-07,0.0,0 STARLINK-3604,1 51815U 22017AZ  22352.34801010  .00000089  00000-0  23696-4 0  9990,2 51815  53.2150 214.4266 0001676  58.5231 301.5925 15.08831231 46464,6917.906999999997,95.438,540.932,538.613,0.0
51815.0,STARLINK-3604,PAYLOAD,2022-12-18 21:04:13,15.08835591,0.0001614,53.2155,212.0472,58.4204,301.6945,0.00011517,1.545e-05,0.0,0 STARLINK-3604,1 51815U 22017AZ  22352.87793108  .00001545  00000-0  11517-3 0  9992,2 51815  53.2155 212.0472 0001614  58.4204 301.6945 15.08835591 46425,6917.894,95.438,540.875,538.6419999999998,0.0
51815.0,STARLINK-3604,PAYLOAD,2022-12-19 08:11:54,15.08846525,0.0001693,53.2149,209.9664,58.0834,302.0322,0.00024992,3.692e-05,0.0,0 STARLINK-3604,1 51815U 22017AZ  22353.34160691  .00003692  00000-0  24992-3 0  9996,2 51815  53.2149 209.9664 0001693  58.0834 302.0322 15.08846525 46612,6917.86,95.437,540.8969999999998,538.554,0.0
51815.0,STARLINK-3604,PAYLOAD,2022-12-19 20:54:59,15.08857458,0.0001723,53.2147,207.5874,58.7,301.416,0.00034343,5.184e-05,0.0,0 STARLINK-3604,1 51815U 22017AZ  22353.87151979  .00005184  00000-0  34343-3 0  9992,2 51815  53.2147 207.5874 0001723  58.7000 301.4160 15.08857458 46578,6917.8269999999975,95.436,540.884,538.5,0.0
51815.0,STARLINK-3604,PAYLOAD,2022-12-20 01:41:09,15.08845393,0.000154,53.2155,206.6937,63.8718,296.2432,0.00014504,2.021e-05,0.0,0 STARLINK-3604,1 51815U 22017AZ  22354.07024341  .00002021  00000-0  14504-3 0  9991,2 51815  53.2155 206.6937 0001540  63.8718 296.2432 15.08845393 46609,6917.864000000001,95.437,540.794,538.664,0.0
51815.0,STARLINK-3604,PAYLOAD,2022-12-20 17:35:00,15.08845497,0.0001611,53.2146,203.721,57.5865,302.5282,0.00016161,2.285e-05,0.0,0 STARLINK-3604,1 51815U 22017AZ  22354.73264336  .00002285  00000-0  16161-3 0  9997,2 51815  53.2146 203.7210 0001611  57.5865 302.5282 15.08845497 46826,6917.864000000001,95.437,540.8430000000002,538.614,0.0
51815.0,STARLINK-3604,PAYLOAD,2022-12-21 01:31:56,15.08840241,0.0001616,53.2146,202.2344,57.3238,302.7909,-1.8381e-06,-3.17e-06,0.0,0 STARLINK-3604,1 51815U 22017AZ  22355.06384479 -.00000317  00000-0 -18381-5 0  9999,2 51815  53.2146 202.2344 0001616  57.3238 302.7909 15.08840241 46870,6917.88,95.438,540.863,538.627,0.0
51815.0,STARLINK-3604,PAYLOAD,2022-12-21 17:25:48,15.08832532,0.0001612,53.2154,199.2605,58.9711,301.1439,-0.00010815,-2.008e-05,0.0,0 STARLINK-3604,1 51815U 22017AZ  22355.72625547 -.00002008  00000-0 -10815-3 0  9997,2 51815  53.2154 199.2605 0001612  58.9711 301.1439 15.08832532 46979,6917.903,95.438,540.883,538.653,0.0
51815.0,STARLINK-3604,PAYLOAD,2022-12-22 06:08:53,15.088297099999998,0.0001569,53.2155,196.8819,54.2178,305.8959,-6.0208e-05,-1.246e-05,0.0,0 STARLINK-3604,1 51815U 22017AZ  22356.25617788 -.00001246  00000-0 -60208-4 0  9999,2 51815  53.2155 196.8819 0001569  54.2178 305.8959 15.08829710 46935,6917.9119999999975,95.438,540.862,538.691,0.0
51815.0,STARLINK-3604,PAYLOAD,2022-12-22 20:27:22,15.08828017,0.0001585999999999,53.2154,194.2057,54.6742,305.4398,1.4716e-05,-5.4e-07,0.0,0 STARLINK-3604,1 51815U 22017AZ  22356.85234067 -.00000054  00000-0  14716-4 0  9998,2 51815  53.2154 194.2057 0001586  54.6742 305.4398 15.08828017 47023,6917.917,95.438,540.879,538.685,0.0
51815.0,STARLINK-3604,PAYLOAD,2022-12-22 22:02:45,15.08828454,0.0001592,53.2154,193.9083,54.7976,305.3165,1.7767e-05,-5e-08,0.0,0 STARLINK-3604,1 51815U 22017AZ  22356.91858080 -.00000005  00000-0  17767-4 0  9997,2 51815  53.2154 193.9083 0001592  54.7976 305.3165 15.08828454 47155,6917.916,95.438,540.882,538.679,0.0
